2022-002BX              
1 51053U 22002BX  22032.87588531  .00002515  00000+0  14994-3 0  9996
2 51053  97.4985 102.2031 0009082 171.9638 188.1740 15.12044840  2911
LEMUR-2-MIRIWARI        
1 51054U 22002BY  22032.87526756  .00004941  00000+0  29015-3 0  9993
2 51054  97.5060 102.2261 0009188 172.0676 188.0702 15.12135719  2916
FLOCK 4X-33             
1 51055U 22002BZ  22032.87486276  .00003177  00000+0  18795-3 0  9999
2 51055  97.5068 102.2287 0009765 173.5220 186.6139 15.12135541  2916
FLOCK 4X-24             
1 51056U 22002CA  22032.87487091  .00003084  00000+0  18254-3 0  9993
2 51056  97.5028 102.2140 0009504 164.2925 195.8602 15.12136685  2918
KEPLER-16 (ASTRAEUS)    
1 51057U 22002CB  22032.87580679  .00004089  00000+0  24119-3 0  9993
2 51057  97.5028 102.2140 0009048 167.9215 192.2234 15.12080517  2918
LEMUR-2-DJIRANG         
1 51058U 22002CC  22032.87581186  .00004385  00000+0  25833-3 0  9991
2 51058  97.5042 102.2191 0008996 169.6039 190.5380 15.12082453  2919
KEPLER-17 (KARINA)      
1 51059U 22002CD  22032.87606834  .00003845  00000+0  22718-3 0  9999
2 51059  97.5048 102.2205 0009262 175.1435 184.9887 15.12056371  2910
ETV-A1                  
1 51060U 22002CE  22032.61230141  .00001956  00000+0  11774-3 0  9998
2 51060  97.5070 101.9644 0009879 180.1555 179.9674 15.11948260  2872
BRO-5                   
1 51061U 22002CF  22032.96634348  .00002529  00000+0  15113-3 0  9992
2 51061  97.5093 102.3175 0009612 180.3260 304.3722 15.11949610  2926
2022-002CG              
1 51062U 22002CG  22032.87152262  .00004795  00000+0  27938-3 0  9998
2 51062  97.5009 102.2118 0010526 162.4825 197.6771 15.12427624  2917
2022-002CH              
1 51063U 22002CH  22032.87155563  .00004763  00000+0  27756-3 0  9999
2 51063  97.5008 102.2112 0010500 162.5256 197.6338 15.12425353  2918
FLOCK 4X-4              
1 51064U 22002CJ  22032.93810890  .00003071  00000+0  18057-3 0  9993
2 51064  97.5027 102.2816 0010680 163.0034 197.1557 15.12367688  2925
FLOCK 4X-7              
1 51065U 22002CK  22032.87224604  .00003078  00000+0  18112-3 0  9998
2 51065  97.5060 102.2322 0010247 170.1158 190.0276 15.12343310  2915
FLOCK 4X-14             
1 51066U 22002CL  22032.93820551  .00002997  00000+0  17633-3 0  9995
2 51066  97.5090 102.3038 0010924 174.2920 185.8437 15.12360123  2921
DEWASAT-1               
1 51067U 22002CM  22032.87917057  .00003218  00000+0  19212-3 0  9999
2 51067  97.5019 102.2083 0008578 179.9763 180.1469 15.11803000  2918
2022-002CN              
1 51068U 22002CN  22032.87971182  .00002308  00000+0  13908-3 0  9994
2 51068  97.5050 102.2163 0008906 182.2717 177.8474 15.11744494  2914
2022-002CP              
1 51069U 22002CP  22032.93703283  .00004819  00000+0  28032-3 0  9990
2 51069  97.4994 102.2749 0010431 163.5536 196.6036 15.12480648  2921
ICEYE X14               
1 51070U 22002CQ  22032.93271621  .00003943  00000+0  22788-3 0  9997
2 51070  97.5044 102.2937 0012372 167.8487 192.3045 15.12807054  2924
CAPELLA-8-WHITNEY       
1 51071U 22002CR  22032.86636133  .00012131  00000+0  68987-3 0  9993
2 51071  97.5049 102.2308 0011908 169.5523 190.5958 15.12958513  2915
CAPELLA-7-WHITNEY       
1 51072U 22002CS  22032.86632245  .00012531  00000+0  71217-3 0  9998
2 51072  97.5044 102.2333 0011220 172.0826 188.0584 15.12979496  2911
2022-002CT              
1 51073U 22002CT  22032.90850565  .00012792  00000+0  68836-3 0  9993
2 51073  97.5185 102.3670 0014041 200.4836 159.5835 15.14897334  2929
DELFI-PQ                
1 51074U 22002CU  22032.84537087  .00006075  00000+0  33243-3 0  9999
2 51074  97.5247 102.3120 0014164 198.1840 161.8887 15.14534393  2918
USA 320                 
1 51075U 22002CV  22032.86051379  .00006082  00000+0  35064-3 0  9998
2 51075  97.5046 102.2396 0011325 223.3200 136.7141 15.12692309  2911
2022-002CW              
1 51076U 22002CW  22032.84905715  .00003732  00000+0  20758-3 0  9992
2 51076  97.5044 102.2547 0014570 194.5053 165.5762 15.14195076  2918
USA 321                 
1 51077U 22002CX  22032.85939854  .00008861  00000+0  50918-3 0  9994
2 51077  97.5053 102.2419 0011178 228.0902 131.9376 15.12679576  2912
USA 322                 
1 51078U 22002CY  22032.86168661  .00003546  00000+0  20616-3 0  9993
2 51078  97.5052 102.2389 0011348 225.3917 134.6389 15.12674531  2913
USA 323                 
1 51079U 22002CZ  22032.85825595  .00003048  00000+0  17772-3 0  9995
2 51079  97.5051 102.2434 0011573 221.3863 138.6492 15.12674591  2915
2022-003A               
1 51094U 22003A   22032.57334472  .00004983  00000+0  22719-3 0  9997
2 51094  44.9843  89.9090 0005148  28.9202 331.1964 15.21856701  2846
2022-003B               
1 51095U 22003B   22032.56869748  .00004416  00000+0  20063-3 0  9997
2 51095  44.9826  89.8730 0003912  16.8745 343.2266 15.22222395  2838
2022-003C               
1 51096U 22003C   22032.56530244  .00004415  00000+0  19896-3 0  9995
2 51096  44.9821  89.8472 0003650 358.4763   1.6107 15.22499370  2839
GEARRS-3                
1 51097U 22003D   22032.56427667  .00004428  00000+0  19901-3 0  9991
2 51097  44.9848  89.8432 0003734 356.5287   3.5566 15.22584874  2832
2022-003E               
1 51098U 22003E   22032.55570682  .00008818  00000+0  37557-3 0  9991
2 51098  44.9862  89.7782 0004235 326.9832  33.0788 15.23361311  2834
LEMUR-2-KRYWE           
1 51099U 22003F   22032.42312166  .00007109  00000+0  30431-3 0  9995
2 51099  44.9903  90.4892 0004325 311.5847  48.4666 15.23456704  2812
2022-003G               
1 51100U 22003G   22032.58134799  .00013542  00000+0  56659-3 0  9997
2 51100  44.9918  89.6275 0003834 295.8547 215.8909 15.23572333  2829
LAUNCHERONE R/B         
1 51101U 22003H   22032.86332669  .00008874  00000+0  24912-3 0  9994
2 51101  45.0274  86.2497 0053651 316.6776  42.9891 15.35568290  2902
SHIYAN-13 (SY-13)       
1 51102U 22004A   22032.87470421  .00005434  00000+0  25801-3 0  9993
2 51102  98.6739  97.0922 0652708 100.0896 267.4525 14.19506934  2245
CZ-2D R/B               
1 51103U 22004B   22030.12161398  .00003083  00000+0  14662-3 0  9991
2 51103  98.6773  94.3824 0652074 107.8252 259.4641 14.19911370  1818
STARLINK-3366           
1 51104U 22005A   22032.91667824 -.00814219  00000+0 -47485-2 0  9998
2 51104  53.2176 205.9074 0001149  78.3010 144.8976 15.79835777  2648
STARLINK-3350           
1 51105U 22005B   22032.91667824 -.00813948  00000+0 -47719-2 0  9997
2 51105  53.2175 205.9183 0001153  79.7001 138.1118 15.79720921  2647
STARLINK-3176           
1 51106U 22005C   22032.91667824 -.00651877  00000+0 -37602-2 0  9999
2 51106  53.2183 205.9142 0001302  79.7070 141.1301 15.79658403  2546
STARLINK-3368           
1 51107U 22005D   22032.91667824 -.00813942  00000+0 -47746-2 0  9993
2 51107  53.2176 205.9193 0001140  85.9911 131.3553 15.79708566  2645
STARLINK-3362           
1 51108U 22005E   22032.91667824 -.00813888  00000+0 -47698-2 0  9999
2 51108  53.2175 205.9174 0001149  80.4090 137.9270 15.79728779  3491
STARLINK-3358           
1 51109U 22005F   22032.91667824 -.00736117  00000+0 -31900-2 0  9998
2 51109  53.2174 205.4733 0001019  69.3750   2.5999 15.85902252  2651
STARLINK-3344           
1 51110U 22005G   22032.91667824 -.00814003  00000+0 -47659-2 0  9999
2 51110  53.2176 205.9153 0001203  70.6943 148.6261 15.79749493  2686
STARLINK-3173           
1 51111U 22005H   22032.91667824 -.00634833  00000+0 -36498-2 0  9990
2 51111  53.2184 205.9101 0001307  72.9997 149.7996 15.79686979  2662
STARLINK-3374           
1 51112U 22005J   22032.91667824 -.00814064  00000+0 -47638-2 0  9995
2 51112  53.2176 205.9143 0001144  82.8296 136.9625 15.79761345  2658
STARLINK-3372           
1 51113U 22005K   22032.91667824 -.00814078  00000+0 -47570-2 0  9996
2 51113  53.2176 205.9112 0001153  73.9266 147.3329 15.79792736  2647
STARLINK-3375           
1 51114U 22005L   22032.91667824 -.00813902  00000+0 -47669-2 0  9991
2 51114  53.2175 205.9164 0001157  76.6856 142.0992 15.79742349  2646
STARLINK-3397           
1 51115U 22005M   22032.91667824 -.00814094  00000+0 -47525-2 0  9996
2 51115  53.2176 205.9092 0001142  82.9807 139.2535 15.79813857  2642
STARLINK-3243           
1 51116U 22005N   22032.91667824 -.00814091  00000+0 -47618-2 0  9997
2 51116  53.2176 205.9132 0001150  84.2174 136.0722 15.79771220  2661
STARLINK-3391           
1 51117U 22005P   22032.91667824 -.00814133  00000+0 -47432-2 0  9999
2 51117  53.2176 205.9052 0001149  79.9287 144.2332 15.79857516  2590
STARLINK-3394           
1 51118U 22005Q   22032.91667824 -.00814116  00000+0 -47550-2 0  9992
2 51118  53.2176 205.9102 0001132  84.4277 137.3210 15.79803183  2644
STARLINK-3390           
1 51119U 22005R   22032.91667824 -.00814386  00000+0 -47425-2 0  9993
2 51119  53.2176 205.9041 0001130  92.9612 131.6859 15.79868290  2659
STARLINK-3398           
1 51120U 22005S   22032.91667824 -.00814485  00000+0 -47386-2 0  9991
2 51120  53.2176 205.9022 0001130  88.2552 137.3696 15.79889046  2644
STARLINK-3399           
1 51121U 22005T   22032.91667824 -.00814244  00000+0 -47462-2 0  9990
2 51121  53.2176 205.9062 0001155  74.8439 148.8328 15.79846962  2640
STARLINK-3373           
1 51122U 22005U   22032.91667824 -.00814263  00000+0 -47395-2 0  9997
2 51122  53.2176 205.9032 0001137  89.3135 135.8250 15.79878367  2590
STARLINK-3392           
1 51123U 22005V   22032.91667824 -.00814334  00000+0 -47351-2 0  9999
2 51123  53.2176 205.9011 0001120  85.8808 140.2118 15.79900764  2598
STARLINK-3389           
1 51124U 22005W   22032.91667824 -.00814318  00000+0 -47328-2 0  9996
2 51124  53.2176 205.9002 0001155  83.0650 143.5235 15.79910551  2593
STARLINK-3387           
1 51125U 22005X   22032.91667824 -.00814473  00000+0 -47267-2 0  9991
2 51125  53.2176 205.8971 0001120  93.5250 134.5030 15.79943358  2596
